{"features":[{"type":"Feature","geometry":{"type":"Polygon","coordinates":[[[120.62867474000006,15.129305749000023],[120.62570965700002,15.130809003000019],[120.62194583100008,15.133017114000035],[120.61942947400009,15.134942797000061],[120.61832552600002,15.135982581000066],[120.61492129500006,15.131464240000067],[120.61410101600006,15.131654573000047],[120.61357625900007,15.132469543000067],[120.60955260500009,15.129414002000031],[120.60756337900013,15.127550107000049],[120.6054526370001,15.12587511500004],[120.60454576500003,15.124638545000035],[120.60385434700004,15.124516880000044],[120.60328731800007,15.123782400000042],[120.60257938000008,15.12407077200004],[120.60035398800005,15.122893711000073],[120.59997220900004,15.123044293000074],[120.59866345800003,15.122023396000035],[120.5982624300001,15.121341852000059],[120.60058322900011,15.119668199000044],[120.60123129900002,15.119951135000067],[120.60249312000008,15.11831983000008],[120.60283123500004,15.117235515000061],[120.60358172500003,15.116198636000032],[120.6061813670001,15.10779199800004],[120.6076387920001,15.10351540300007],[120.60913067800004,15.101343326000059],[120.60811989700005,15.096776740000053],[120.60769139500006,15.096643915000069],[120.6072312340001,15.094464667000072],[120.60573229800004,15.08906269200003],[120.60665791100006,15.088891418000062],[120.60760430100004,15.086874350000068],[120.60880857000008,15.084853049000062],[120.60895791900008,15.082882877000035],[120.61541525900009,15.078577242000051],[120.62632252600007,15.07121022500007],[120.62794503400005,15.069602464000068],[120.63031832400009,15.066467578000069],[120.63154878600007,15.067631439000026],[120.63468779900005,15.065072082000023],[120.63330280200013,15.063333003000027],[120.63402094800007,15.062729455000067],[120.632955797,15.062228797000046],[120.63393412100004,15.06084876600005],[120.63683741300008,15.058207556000069],[120.63866757500011,15.056363993000046],[120.64175505900005,15.054537633000054],[120.642525888,15.05484996700005],[120.64631917400003,15.045997377000049],[120.64680858200006,15.045005685000033],[120.65022648200012,15.046309482000021],[120.65091412800008,15.045731567000077],[120.653884864,15.047260043000051],[120.65336841700001,15.045014860000041],[120.65374352100001,15.043394850000027],[120.65499386500007,15.04200859900004],[120.65580488000012,15.041597795000028],[120.65747794100002,15.041445067000042],[120.65959956600011,15.040513437000072],[120.66047505200002,15.038910337000067],[120.66241848800009,15.036436445000048],[120.66521393900007,15.034654961000054],[120.66637108200007,15.03352833100007],[120.66722695200009,15.032018875000066],[120.66800903800004,15.027055349000026],[120.669052114,15.026936245000055],[120.67004152100003,15.025346128000024],[120.67406490300004,15.021504618000053],[120.67379764100009,15.020173002000035],[120.67433461600002,15.016710910000027],[120.67721481600006,15.017281861000077],[120.6773802900001,15.016790481000038],[120.67904175500007,15.014203470000039],[120.67959528900009,15.014343504000063],[120.68228493000004,15.013494171000048],[120.68279146700002,15.01374076000007],[120.68324685800008,15.010394105000044],[120.68194990000005,15.009553834000032],[120.68082757000002,15.007961563000043],[120.68115554000008,15.005666014000044],[120.68269862500007,15.00447184200004],[120.68389916100011,15.004604127000048],[120.6851302870001,15.004263135000029],[120.68704691800009,15.004126630000025],[120.6866896460001,15.005217335000056],[120.68766280400007,15.005537460000026],[120.68984617300009,15.004483438000024],[120.69112237600007,15.00524028500007],[120.69297350000012,15.007321467000057],[120.69519187300011,15.005025381000047],[120.69629625000006,15.005138287000024],[120.69763497300005,15.004919720000029],[120.6986222930001,15.005562937000033],[120.70071481200011,15.01233622300004],[120.70160051300003,15.01148516800004],[120.702320717,15.011998712000034],[120.70210174200008,15.012765093000036],[120.70265287600013,15.013547363000036],[120.70623372800003,15.01638574100002],[120.70580458000008,15.01694184300004],[120.7074694910001,15.01830473500007],[120.70760671500011,15.01932871500003],[120.7098948800001,15.01931994800003],[120.71154598300006,15.01809842400007],[120.71278879600004,15.01832818100007],[120.7147540220001,15.016614321000077],[120.71727015000012,15.017115193000052],[120.71692605600003,15.01791101900005],[120.71721408200007,15.019803384000056],[120.71975648200008,15.021064366000076],[120.72020487200007,15.022281424000028],[120.7219014320001,15.022418686000037],[120.72321365900007,15.02327337100007],[120.72455562500011,15.024911367000069],[120.72482740400007,15.025828278000063],[120.72456660600005,15.027771910000068],[120.72478073500007,15.029825352000048],[120.72602982000002,15.03097011800003],[120.72699065600011,15.031077183000036],[120.72744225400005,15.032262459000037],[120.72331230200007,15.034700286000035],[120.71774104700012,15.037788342000054],[120.7111636720001,15.042743391000046],[120.70693763300005,15.046223924000058],[120.70270595400005,15.048988831000024],[120.70078718700006,15.050928187000071],[120.69983833600007,15.052596367000035],[120.69783364400007,15.052609607000019],[120.69784396500006,15.05354930500005],[120.69583392800007,15.053548732000024],[120.6933884140001,15.052475091000073],[120.692206993,15.052828592000026],[120.68896890200006,15.05695722200005],[120.6868050710001,15.059963109000021],[120.683514338,15.064980782000077],[120.68143739600008,15.068510794000073],[120.67735963300004,15.076146705000038],[120.6758551160001,15.077380572000038],[120.67508669900008,15.078841871000066],[120.67426928800013,15.078378538000035],[120.67374821700002,15.079709866000034],[120.66946508400008,15.082831683000055],[120.66831032200002,15.085308848000071],[120.66872807100005,15.08547160200004],[120.66767009500006,15.087976169000058],[120.66795465400003,15.08885110700004],[120.6660754610001,15.08936682500007],[120.6649027320001,15.089455133000056],[120.66366112800004,15.090055328000059],[120.66306505500008,15.090691256000069],[120.66216030900011,15.090530092000053],[120.6566476270001,15.097879078000062],[120.65206967200005,15.10204448400003],[120.64998105500001,15.103025628000069],[120.64810998700011,15.104415501000062],[120.65295744400011,15.109584840000027],[120.6510864390001,15.110272040000037],[120.64948996500006,15.111100878000062],[120.64768016200004,15.113003358000077],[120.64739863700004,15.11362760900005],[120.64538466500007,15.115562411000033],[120.64292542600002,15.116651887000046],[120.64128999600007,15.116411561000058],[120.638040939,15.118814892000046],[120.63255446800007,15.12149462300005],[120.63108798300004,15.121772939000039],[120.63136571500002,15.123421675000031],[120.62953196700005,15.124304755000026],[120.62674743100001,15.125241710000065],[120.62867474000006,15.129305749000023]]]},"properties":{"adm1_psgc":300000000,"adm2_psgc":305400000,"adm3_psgc":305416000,"adm3_en":"City of San Fernando","geo_level":"City","len_crs":49595,"area_crs":70162301,"len_km":49,"area_km2":70},"id":305416000}],"type":"FeatureCollection"}
